[{"OBJECT_NAME":"BANDWAGON-2 OBJECT D","OBJECT_ID":"2024-247D","EPOCH":"2026-03-09T12:32:33.670752","MEAN_MOTION":15.29076102,"ECCENTRICITY":0.00034883,"INCLINATION":44.9954,"RA_OF_ASC_NODE":115.671,"ARG_OF_PERICENTER":351.1453,"MEAN_ANOMALY":8.9368,"EPHEMERIS_TYPE":0,"CLASSIFICATION_TYPE":"U","NORAD_CAT_ID":62380,"ELEMENT_SET_NO":999,"REV_AT_EPOCH":6773,"BSTAR":0.00040119131,"MEAN_MOTION_DOT":0.00011259,"MEAN_MOTION_DDOT":0},{"OBJECT_NAME":"STARLINK-35550","OBJECT_ID":"2025-247C","EPOCH":"2026-03-09T14:23:51.362592","MEAN_MOTION":15.30193104,"ECCENTRICITY":0.0001087,"INCLINATION":53.1601,"RA_OF_ASC_NODE":191.5541,"ARG_OF_PERICENTER":64.038,"MEAN_ANOMALY":296.0732,"EPHEMERIS_TYPE":0,"CLASSIFICATION_TYPE":"U","NORAD_CAT_ID":66267,"ELEMENT_SET_NO":999,"REV_AT_EPOCH":2102,"BSTAR":0.00092795,"MEAN_MOTION_DOT":0.00027219,"MEAN_MOTION_DDOT":0}]
